LIZZIESAT-1 (LS-1)      
1 59132U 24043AL  26068.89230471  .00005784  00000+0  22329-3 0  9993
2 59132  97.5461 203.4772 0009923 229.9925 130.0443 15.26635711111780
STARLINK-36467          
1 67348U 26003Q   26068.50439086  .00026934  00000+0  98457-3 0  9995
2 67348  43.0012 228.2780 0001387 242.6137 117.4574 15.27584661  8791
